start=new Date('2023-02-18T00:00:00.000Z').valueOf();
sats=[{"GP_ID":"225834143","DECAY_DATE":null,"ECCENTRICITY":"0.00016560","MEAN_MOTION_DDOT":"0.0000000000000","TLE_LINE2":"2 44736  53.0488 175.7129 0001656  88.1950 271.9228 15.06390919180299","COUNTRY_CODE":"US","RCS_SIZE":"LARGE","CENTER_NAME":"EARTH","TIME_SYSTEM":"UTC","FILE":"3804075","MEAN_MOTION":"15.06390919","MEAN_ELEMENT_THEORY":"SGP4","SEMIMAJOR_AXIS":"6925.376","ARG_OF_PERICENTER":"88.1950","CLASSIFICATION_TYPE":"U","MEAN_MOTION_DOT":"0.00013842","INCLINATION":"53.0488","OBJECT_ID":"2019-074Z","PERIAPSIS":"546.095","APOAPSIS":"548.388","RA_OF_ASC_NODE":"175.7129","BSTAR":"0.00094654000000","NORAD_CAT_ID":"44736","EPHEMERIS_TYPE":"0","OBJECT_NAME":"STARLINK-1031","ELEMENT_SET_NO":"999","EPOCH":"2023-02-17T20:57:46.302912","OBJECT_TYPE":"PAYLOAD","LAUNCH_DATE":"2019-11-11","PERIOD":"95.593","MEAN_ANOMALY":"271.9228","TLE_LINE1":"1 44736U 19074Z   23048.87345258  .00013842  00000-0  94654-3 0  9993","SITE":"AFETR","REV_AT_EPOCH":"18029","REF_FRAME":"TEME"},{"MEAN_MOTION":"15.06385320","FILE":"3804075","TIME_SYSTEM":"UTC","CENTER_NAME":"EARTH","RCS_SIZE":"LARGE","COUNTRY_CODE":"US","TLE_LINE2":"2 44737  53.0482 175.9591 0001670  88.4270 271.6911 15.06385320180288","ECCENTRICITY":"0.00016700","MEAN_MOTION_DDOT":"0.0000000000000","DECAY_DATE":null,"GP_ID":"225832893","OBJECT_ID":"2019-074AA","INCLINATION":"53.0482","MEAN_MOTION_DOT":"0.00013192","CLASSIFICATION_TYPE":"U","ARG_OF_PERICENTER":"88.4270","MEAN_ELEMENT_THEORY":"SGP4","SEMIMAJOR_AXIS":"6925.394","OBJECT_NAME":"STARLINK-1032","EPHEMERIS_TYPE":"0","NORAD_CAT_ID":"44737","BSTAR":"0.00090319000000","RA_OF_ASC_NODE":"175.9591","APOAPSIS":"548.415","PERIAPSIS":"546.102","REF_FRAME":"TEME","REV_AT_EPOCH":"18028","SITE":"AFETR","TLE_LINE1":"1 44737U 19074AA  23048.81816397  .00013192  00000-0  90319-3 0  9997","MEAN_ANOMALY":"271.6911","PERIOD":"95.593","LAUNCH_DATE":"2019-11-11","EPOCH":"2023-02-17T19:38:09.367008","OBJECT_TYPE":"PAYLOAD","ELEMENT_SET_NO":"999"},{"MEAN_ANOMALY":"334.6334","SITE":"AFETR","TLE_LINE1":"1 44738U 19074AB  23048.86976225  .00007894  00000-0  54816-3 0  9994","REF_FRAME":"TEME","REV_AT_EPOCH":"18028","OBJECT_TYPE":"PAYLOAD","EPOCH":"2023-02-17T20:52:27.458400","ELEMENT_SET_NO":"999","LAUNCH_DATE":"2019-11-11","PERIOD":"95.592","RA_OF_ASC_NODE":"175.7316","BSTAR":"0.00054816000000","NORAD_CAT_ID":"44738","OBJECT_NAME":"STARLINK-1033","EPHEMERIS_TYPE":"0","APOAPSIS":"547.894","PERIAPSIS":"546.496","MEAN_MOTION_DOT":"0.00007894","INCLINATION":"53.0521","OBJECT_ID":"2019-074AB","SEMIMAJOR_AXIS":"6925.330","MEAN_ELEMENT_THEORY":"SGP4","ARG_OF_PERICENTER":"25.4705","CLASSIFICATION_TYPE":"U","TIME_SYSTEM":"UTC","CENTER_NAME":"EARTH","FILE":"3804075","MEAN_MOTION":"15.06406097","DECAY_DATE":null,"GP_ID":"225832644","TLE_LINE2":"2 44738  53.0521 175.7316 0001009  25.4705 334.6334 15.06406097180280","MEAN_MOTION_DDOT":"0.0000000000000","ECCENTRICITY":"0.00010090","RCS_SIZE":"LARGE","COUNTRY_CODE":"US"},{"MEAN_MOTION":"15.29355541","FILE":"3802730","TIME_SYSTEM":"UTC","CENTER_NAME":"EARTH","COUNTRY_CODE":"US","RCS_SIZE":"LARGE","TLE_LINE2":"2 44739  52.9636 140.8029 0002348 342.9180  17.1738 15.29355541180688","ECCENTRICITY":"0.00023480","MEAN_MOTION_DDOT":"0.0000000000000","GP_ID":"225777882","DECAY_DATE":null,"INCLINATION":"52.9636","OBJECT_ID":"2019-074AC","MEAN_MOTION_DOT":"0.00029112","CLASSIFICATION_TYPE":"U","ARG_OF_PERICENTER":"342.9180","MEAN_ELEMENT_THEORY":"SGP4","SEMIMAJOR_AXIS":"6855.875","OBJECT_NAME":"STARLINK-1034","EPHEMERIS_TYPE":"0","NORAD_CAT_ID":"44739","BSTAR":"0.00101710000000","RA_OF_ASC_NODE":"140.8029","APOAPSIS":"479.349","PERIAPSIS":"476.130","REV_AT_EPOCH":"18068","REF_FRAME":"TEME","SITE":"AFETR","TLE_LINE1":"1 44739U 19074AC  23048.52156151  .00029112  00000-0  10171-2 0  9998","MEAN_ANOMALY":"17.1738","PERIOD":"94.157","LAUNCH_DATE":"2019-11-11","EPOCH":"2023-02-17T12:31:02.914464","OBJECT_TYPE":"PAYLOAD","ELEMENT_SET_NO":"999"},{"ELEMENT_SET_NO":"999","OBJECT_TYPE":"PAYLOAD","EPOCH":"2023-02-17T13:10:42.329856","LAUNCH_DATE":"2019-11-11","PERIOD":"95.594","MEAN_ANOMALY":"255.3123","TLE_LINE1":"1 44740U 19074AD  23048.54910104  .00003883  00000-0  27966-3 0  9996","SITE":"AFETR","REV_AT_EPOCH":"18041","REF_FRAME":"TEME","PERIAPSIS":"546.312","APOAPSIS":"548.286","RA_OF_ASC_NODE":"177.1703","BSTAR":"0.00027966000000","NORAD_CAT_ID":"44740","EPHEMERIS_TYPE":"0","OBJECT_NAME":"STARLINK-1035","SEMIMAJOR_AXIS":"6925.434","MEAN_ELEMENT_THEORY":"SGP4","ARG_OF_PERICENTER":"104.8024","CLASSIFICATION_TYPE":"U","MEAN_MOTION_DOT":"0.00003883","INCLINATION":"53.0541","OBJECT_ID":"2019-074AD","DECAY_DATE":null,"GP_ID":"225791856","ECCENTRICITY":"0.00014250","MEAN_MOTION_DDOT":"0.0000000000000","TLE_LINE2":"2 44740  53.0541 177.1703 0001425 104.8024 255.3123 15.06372228180417","COUNTRY_CODE":"US","RCS_SIZE":"LARGE","CENTER_NAME":"EARTH","TIME_SYSTEM":"UTC","FILE":"3803075","MEAN_MOTION":"15.06372228"},{"TIME_SYSTEM":"UTC","CENTER_NAME":"EARTH","MEAN_MOTION":"15.06424716","FILE":"3804075","GP_ID":"225832394","DECAY_DATE":null,"RCS_SIZE":"LARGE","COUNTRY_CODE":"US","TLE_LINE2":"2 44741  53.0533 176.2277 0000987  60.4500 299.6587 15.06424716180272","MEAN_MOTION_DDOT":"0.0000000000000","ECCENTRICITY":"0.00009870","MEAN_MOTION_DOT":"-0.00005581","INCLINATION":"53.0533","OBJECT_ID":"2019-074AE","MEAN_ELEMENT_THEORY":"SGP4","SEMIMAJOR_AXIS":"6925.273","CLASSIFICATION_TYPE":"U","ARG_OF_PERICENTER":"60.4500","BSTAR":"-0.00035582000000","RA_OF_ASC_NODE":"176.2277","OBJECT_NAME":"STARLINK-1036","EPHEMERIS_TYPE":"0","NORAD_CAT_ID":"44741","APOAPSIS":"547.821","PERIAPSIS":"546.454","MEAN_ANOMALY":"299.6587","REV_AT_EPOCH":"18027","REF_FRAME":"TEME","SITE":"AFETR","TLE_LINE1":"1 44741U 19074AE  23048.75917999 -.00005581  00000-0 -35582-3 0  9991","EPOCH":"2023-02-17T18:13:13.151136","OBJECT_TYPE":"PAYLOAD","ELEMENT_SET_NO":"999","PERIOD":"95.591","LAUNCH_DATE":"2019-11-11"},{"MEAN_ANOMALY":"325.9094","REV_AT_EPOCH":"18083","REF_FRAME":"TEME","SITE":"AFETR","TLE_LINE1":"1 44742U 19074AF  23048.63667614  .00150173  00000-0  41477-2 0  9990","OBJECT_TYPE":"PAYLOAD","EPOCH":"2023-02-17T15:16:48.818496","ELEMENT_SET_NO":"999","PERIOD":"93.750","LAUNCH_DATE":"2019-11-11","BSTAR":"0.00414770000000","RA_OF_ASC_NODE":"131.1820","OBJECT_NAME":"STARLINK-1037","EPHEMERIS_TYPE":"0","NORAD_CAT_ID":"44742","APOAPSIS":"461.760","PERIAPSIS":"454.109","MEAN_MOTION_DOT":"0.00150173","OBJECT_ID":"2019-074AF","INCLINATION":"52.9697","MEAN_ELEMENT_THEORY":"SGP4","SEMIMAJOR_AXIS":"6836.069","CLASSIFICATION_TYPE":"U","ARG_OF_PERICENTER":"34.2267","TIME_SYSTEM":"UTC","CENTER_NAME":"EARTH","MEAN_MOTION":"15.36006576","FILE":"3804075","DECAY_DATE":null,"GP_ID":"225833144","RCS_SIZE":"LARGE","COUNTRY_CODE":"US","TLE_LINE2":"2 44742  52.9697 131.1820 0005596  34.2267 325.9094 15.36006576180837","ECCENTRICITY":"0.00055960","MEAN_MOTION_DDOT":"0.0000000000000"},{"SEMIMAJOR_AXIS":"6925.377","MEAN_ELEMENT_THEORY":"SGP4","CLASSIFICATION_TYPE":"U","ARG_OF_PERICENTER":"105.5407","MEAN_MOTION_DOT":"0.00003320","OBJECT_ID":"2019-074AG","INCLINATION":"53.0496","GP_ID":"225833396","DECAY_DATE":null,"COUNTRY_CODE":"US","RCS_SIZE":"LARGE","TLE_LINE2":"2 44743  53.0496 196.0000 0001519 105.5407 254.5750 15.06390765180093","ECCENTRICITY":"0.00015190","MEAN_MOTION_DDOT":"0.0000000000000","TIME_SYSTEM":"UTC","CENTER_NAME":"EARTH","MEAN_MOTION":"15.06390765","FILE":"3804075","EPOCH":"2023-02-17T19:24:53.038080","OBJECT_TYPE":"PAYLOAD","ELEMENT_SET_NO":"999","PERIOD":"95.593","LAUNCH_DATE":"2019-11-11","MEAN_ANOMALY":"254.5750","REF_FRAME":"TEME","REV_AT_EPOCH":"18009","SITE":"AFETR","TLE_LINE1":"1 44743U 19074AG  23048.80894720  .00003320  00000-0  24172-3 0  9995","APOAPSIS":"548.294","PERIAPSIS":"546.190","BSTAR":"0.00024172000000","RA_OF_ASC_NODE":"196.0000","OBJECT_NAME":"STARLINK-1038","EPHEMERIS_TYPE":"0","NORAD_CAT_ID":"44743"},{"DECAY_DATE":null,"GP_ID":"225834144","RCS_SIZE":"LARGE","COUNTRY_CODE":"US","TLE_LINE2":"2 44744  53.0492 195.6555 0001553  92.3300 267.7867 15.06394536180010","MEAN_MOTION_DDOT":"0.0000000000000","ECCENTRICITY":"0.00015530","TIME_SYSTEM":"UTC","CENTER_NAME":"EARTH","MEAN_MOTION":"15.06394536","FILE":"3804075","MEAN_ELEMENT_THEORY":"SGP4","SEMIMAJOR_AXIS":"6925.365","CLASSIFICATION_TYPE":"U","ARG_OF_PERICENTER":"92.3300","MEAN_MOTION_DOT":"0.00000601","OBJECT_ID":"2019-074AH","INCLINATION":"53.0492","APOAPSIS":"548.306","PERIAPSIS":"546.155","BSTAR":"0.00005927500000","RA_OF_ASC_NODE":"195.6555","OBJECT_NAME":"STARLINK-1039","EPHEMERIS_TYPE":"0","NORAD_CAT_ID":"44744","EPOCH":"2023-02-17T21:16:20.891424","OBJECT_TYPE":"PAYLOAD","ELEMENT_SET_NO":"999","PERIOD":"95.592","LAUNCH_DATE":"2019-11-11","MEAN_ANOMALY":"267.7867","REV_AT_EPOCH":"18001","REF_FRAME":"TEME","SITE":"AFETR","TLE_LINE1":"1 44744U 19074AH  23048.88635291  .00000601  00000-0  59275-4 0  9992"},{"INCLINATION":"53.0515","OBJECT_ID":"2019-074AK","MEAN_MOTION_DOT":"0.00003338","ARG_OF_PERICENTER":"99.1511","CLASSIFICATION_TYPE":"U","MEAN_ELEMENT_THEORY":"SGP4","SEMIMAJOR_AXIS":"6925.345","FILE":"3804075","MEAN_MOTION":"15.06401012","CENTER_NAME":"EARTH","TIME_SYSTEM":"UTC","ECCENTRICITY":"0.00014490","MEAN_MOTION_DDOT":"0.0000000000000","TLE_LINE2":"2 44746  53.0515 195.7203 0001449  99.1511 260.9642 15.06401012180016","COUNTRY_CODE":"US","RCS_SIZE":"LARGE","GP_ID":"225832894","DECAY_DATE":null,"TLE_LINE1":"1 44746U 19074AK  23048.87160601  .00003338  00000-0  24287-3 0  9995","SITE":"AFETR","REV_AT_EPOCH":"18001","REF_FRAME":"TEME","MEAN_ANOMALY":"260.9642","LAUNCH_DATE":"2019-11-11","PERIOD":"95.592","ELEMENT_SET_NO":"999","EPOCH":"2023-02-17T20:55:06.759264","OBJECT_TYPE":"PAYLOAD","NORAD_CAT_ID":"44746","EPHEMERIS_TYPE":"0","OBJECT_NAME":"STARLINK-1041","RA_OF_ASC_NODE":"195.7203","BSTAR":"0.00024287000000","PERIAPSIS":"546.207","APOAPSIS":"548.214"}];
